IRIDIUM 106             
1 41917U 17003A   25263.09132340 -.00000040  00000+0 -21455-4 0  9999
2 41917  86.4026 201.3540 0002518  78.9614 281.1865 14.34217267454490
IRIDIUM 103             
1 41918U 17003B   25263.07863794  .00000062  00000+0  15037-4 0  9993
2 41918  86.4025 201.2598 0002504  94.8817 265.2665 14.34217687454519
IRIDIUM 109             
1 41919U 17003C   25263.08497868 -.00000163  00000+0 -65254-4 0  9990
2 41919  86.4027 201.3125 0002081  85.8640 274.2794 14.34217411454487
IRIDIUM 102             
1 41920U 17003D   25263.12303524  .00000198  00000+0  63472-4 0  9998
2 41920  86.4026 201.2258 0002124  83.9445 276.1993 14.34217889454575
IRIDIUM 105             
1 41921U 17003E   25262.88455143  .00000316  00000+0  10597-3 0  9997
2 41921  86.4047 169.8392 0002226  87.8039 272.3412 14.34208503456391
IRIDIUM 104             
1 41922U 17003F   25263.06595191  .00000031  00000+0  39410-5 0  9998
2 41922  86.4026 201.2878 0002101  94.0878 266.0558 14.34217244454551
IRIDIUM 114             
1 41923U 17003G   25263.07229526 -.00000008  00000+0 -10071-4 0  9993
2 41923  86.4030 201.2699 0002286  88.2403 271.9055 14.34217096454531
IRIDIUM 108             
1 41924U 17003H   25262.82151006 -.00000008  00000+0 -10019-4 0  9995
2 41924  86.4042 169.7607 0002090  78.5569 281.5862 14.34217603456359
